NORAD_CAT_ID,OBJECT_NAME,OBJECT_TYPE,EPOCH,MEAN_MOTION,ECCENTRICITY,INCLINATION,RA_OF_ASC_NODE,ARG_OF_PERICENTER,MEAN_ANOMALY,BSTAR,MEAN_MOTION_DOT,MEAN_MOTION_DDOT,TLE_LINE0,TLE_LINE1,TLE_LINE2,SEMIMAJOR_AXIS,PERIOD,APOGEE,PERIGEE,DECAYED
49411.0,STARLINK-3162,PAYLOAD,2024-01-16 14:56:42,15.08847509,0.0001805,53.2166,134.4445,107.8807,252.2382,-0.00020149,-3.494e-05,0.0,0 STARLINK-3162,1 49411U 21104D   24016.62271703 -.00003494  00000-0 -20149-3 0  9999,2 49411  53.2166 134.4445 0001805 107.8807 252.2382 15.08847509121638,6917.857,95.437,540.971,538.474,0.0
49411.0,STARLINK-3162,PAYLOAD,2024-01-17 11:36:44,15.08827179,0.0001194,53.2162,130.5784,98.4224,261.6904,6.7224e-06,-1.81e-06,0.0,0 STARLINK-3162,1 49411U 21104D   24017.48384871 -.00000181  00000-0  67224-5 0  9991,2 49411  53.2162 130.5784 0001194  98.4224 261.6904 15.08827179121765,6917.92,95.438,540.611,538.959,0.0
49411.0,STARLINK-3162,PAYLOAD,2024-01-17 14:47:30,15.08834601,0.0001349,53.2169,129.9832,77.8382,282.2762,6.9533e-05,8.19e-06,0.0,0 STARLINK-3162,1 49411U 21104D   24017.61632423  .00000819  00000-0  69533-4 0  9996,2 49411  53.2169 129.9832 0001349  77.8382 282.2762 15.08834601120708,6917.897,95.438,540.695,538.829,0.0
49411.0,STARLINK-3162,PAYLOAD,2024-01-17 17:58:15,15.08842143,0.0001415,53.2171,129.3855,100.5976,259.5176,0.00011779,1.587e-05,0.0,0 STARLINK-3162,1 49411U 21104D   24017.74879569  .00001587  00000-0  11779-3 0  9995,2 49411  53.2171 129.3855 0001415 100.5976 259.5176 15.08842143121805,6917.874,95.437,540.718,538.76,0.0
49411.0,STARLINK-3162,PAYLOAD,2024-01-18 11:27:31,15.08835711,0.0001171,53.217,126.1182,111.469,248.6427,9.7987e-05,1.272e-05,0.0,0 STARLINK-3162,1 49411U 21104D   24018.47744396  .00001272  00000-0  97987-4 0  9992,2 49411  53.2170 126.1182 0001171 111.4690 248.6427 15.08835711121918,6917.893,95.438,540.569,538.948,0.0
49411.0,STARLINK-3162,PAYLOAD,2024-01-18 14:38:16,15.08848525,0.0001292,53.2165,125.523,92.6616,267.4524,0.00019936,2.887e-05,0.0,0 STARLINK-3162,1 49411U 21104D   24018.60991470  .00002887  00000-0  19936-3 0  9994,2 49411  53.2165 125.5230 0001292  92.6616 267.4524 15.08848525120857,6917.854,95.437,540.613,538.826,0.0
49411.0,STARLINK-3162,PAYLOAD,2024-01-19 11:18:18,15.08840882,0.0001653,53.2169,121.6584,66.9064,293.2102,3.5516e-05,2.77e-06,0.0,0 STARLINK-3162,1 49411U 21104D   24019.47104658  .00000277  00000-0  35516-4 0  9998,2 49411  53.2169 121.6584 0001653  66.9064 293.2102 15.08840882122064,6917.878,95.437,540.886,538.599,0.0
49411.0,STARLINK-3162,PAYLOAD,2024-01-19 14:29:04,15.08846557,0.0002001,53.2176,121.062,59.4908,300.6281,7.5743e-05,9.18e-06,0.0,0 STARLINK-3162,1 49411U 21104D   24019.60352208  .00000918  00000-0  75743-4 0  9997,2 49411  53.2176 121.0620 0002001  59.4908 300.6281 15.08846557121008,6917.86,95.437,541.11,538.341,0.0
49411.0,STARLINK-3162,PAYLOAD,2024-01-20 11:09:05,15.08841592,0.0001575,53.2169,117.2,68.2607,291.8552,-2.5013e-05,-6.86e-06,0.0,0 STARLINK-3162,1 49411U 21104D   24020.46464576 -.00000686  00000-0 -25013-4 0  9994,2 49411  53.2169 117.2000 0001575  68.2607 291.8552 15.08841592122218,6917.876,95.437,540.83,538.651,0.0
49411.0,STARLINK-3162,PAYLOAD,2024-01-20 12:44:28,15.08847349,0.0001565,53.217,116.9004,73.8915,286.2249,-4.1687e-05,-9.52e-06,0.0,0 STARLINK-3162,1 49411U 21104D   24020.53088246 -.00000952  00000-0 -41687-4 0  9999,2 49411  53.2170 116.9004 0001565  73.8915 286.2249 15.08847349121141,6917.858,95.437,540.806,538.64,0.0
49411.0,STARLINK-3162,PAYLOAD,2024-01-20 15:55:14,15.08852142,0.0001474,53.2171,116.3047,80.9321,279.1838,-7.2572e-06,-4.04e-06,0.0,0 STARLINK-3162,1 49411U 21104D   24020.66335712 -.00000404  00000-0 -72572-5 0  9996,2 49411  53.2171 116.3047 0001474  80.9321 279.1838 15.08852142122246,6917.843,95.437,540.728,538.689,0.0
49411.0,STARLINK-3162,PAYLOAD,2024-01-21 06:13:43,15.08844829,0.0001603,53.2184,113.6269,106.4228,253.694,-9.6389e-05,-1.822e-05,0.0,0 STARLINK-3162,1 49411U 21104D   24021.25952552 -.00001822  00000-0 -96389-4 0  9995,2 49411  53.2184 113.6269 0001603 106.4228 253.6940 15.08844829121254,6917.866,95.437,540.84,538.622,0.0
49411.0,STARLINK-3162,PAYLOAD,2024-01-21 12:35:15,15.08849174,0.000151,53.218,112.4428,90.1427,269.9738,-4.6518e-05,-1.028e-05,0.0,0 STARLINK-3162,1 49411U 21104D   24021.52447985 -.00001028  00000-0 -46518-4 0  9991,2 49411  53.2180 112.4428 0001510  90.1427 269.9738 15.08849174122378,6917.852,95.437,540.762,538.673,0.0
49411.0,STARLINK-3162,PAYLOAD,2024-01-22 06:04:30,15.08837791,0.00016,53.2178,109.1686,100.3577,259.7595,1.4349e-06,-2.65e-06,0.0,0 STARLINK-3162,1 49411U 21104D   24022.25312599 -.00000265  00000-0  14349-5 0  9993,2 49411  53.2178 109.1686 0001600 100.3577 259.7595 15.08837791121407,6917.887,95.438,540.859,538.645,0.0
49411.0,STARLINK-3162,PAYLOAD,2024-01-22 10:50:39,15.08836422,0.0001566,53.2183,108.2802,96.3921,263.725,2.6757e-05,1.38e-06,0.0,0 STARLINK-3162,1 49411U 21104D   24022.45184607  .00000138  00000-0  26757-4 0  9995,2 49411  53.2183 108.2802 0001566  96.3921 263.7250 15.08836422122517,6917.891,95.438,540.84,538.673,0.0
49411.0,STARLINK-3162,PAYLOAD,2024-01-22 12:26:02,15.08837186,0.0001597,53.2184,107.9829,96.6457,263.4717,3.0304e-05,1.94e-06,0.0,0 STARLINK-3162,1 49411U 21104D   24022.51808558  .00000194  00000-0  30304-4 0  9995,2 49411  53.2184 107.9829 0001597  96.6457 263.4717 15.08837186121448,6917.889,95.438,540.859,538.649,0.0
49411.0,STARLINK-3162,PAYLOAD,2024-01-23 10:41:26,15.08840894,0.0001753,53.2185,103.8183,109.0105,251.1077,1.9744e-06,-2.57e-06,0.0,0 STARLINK-3162,1 49411U 21104D   24023.44544519 -.00000257  00000-0  19744-5 0  9999,2 49411  53.2185 103.8183 0001753 109.0105 251.1077 15.08840894121588,6917.878,95.437,540.955,538.53,0.0
49411.0,STARLINK-3162,PAYLOAD,2024-01-24 08:56:50,15.08867295,0.0001704,53.2193,99.6602,120.0087,240.1074,-0.00046639,-7.709e-05,0.0,0 STARLINK-3162,1 49411U 21104D   24024.37280800 -.00007709  00000-0 -46639-3 0  9993,2 49411  53.2193  99.6602 0001704 120.0087 240.1074 15.08867295122808,6917.797,95.436,540.841,538.483,0.0
49411.0,STARLINK-3162,PAYLOAD,2024-01-25 11:58:24,15.08801529,0.0001526,53.2169,94.5981,93.3948,266.7218,0.00062786,9.708e-05,0.0,0 STARLINK-3162,1 49411U 21104D   24025.49889596  .00009708  00000-0  62786-3 0  9994,2 49411  53.2169  94.5981 0001526  93.3948 266.7218 15.08801529122975,6917.998,95.44,540.919,538.807,0.0
49411.0,STARLINK-3162,PAYLOAD,2024-01-26 11:49:11,15.08817049,0.0001912,53.2184,90.138,61.6262,298.4923,0.00046445,7.107e-05,0.0,0 STARLINK-3162,1 49411U 21104D   24026.49249516  .00007107  00000-0  46445-3 0  9992,2 49411  53.2184  90.1380 0001912  61.6262 298.4923 15.08817049123120,6917.951,95.439,541.138,538.493,0.0
49411.0,STARLINK-3162,PAYLOAD,2024-01-27 10:04:35,15.08839786,0.0001991,53.2188,85.9721,63.3816,296.738,6.5291e-06,-1.84e-06,0.0,0 STARLINK-3162,1 49411U 21104D   24027.41985691 -.00000184  00000-0  65291-5 0  9997,2 49411  53.2188  85.9721 0001991  63.3816 296.7380 15.08839786123261,6917.881,95.438,541.123,538.369,0.0
49411.0,STARLINK-3162,PAYLOAD,2024-01-28 13:06:08,15.08845656,0.000152,53.2174,80.9154,88.6315,271.4851,1.0512e-05,-1.21e-06,0.0,0 STARLINK-3162,1 49411U 21104D   24028.54593022 -.00000121  00000-0  10512-4 0  9991,2 49411  53.2174  80.9154 0001520  88.6315 271.4851 15.08845656122358,6917.863,95.437,540.78,538.677,0.0
49411.0,STARLINK-3162,PAYLOAD,2024-01-29 09:46:08,15.088446,0.0001696,53.218,77.049,96.3927,263.7258,7.8871e-05,9.68e-06,0.0,0 STARLINK-3162,1 49411U 21104D   24029.40704763  .00000968  00000-0  78871-4 0  9993,2 49411  53.2180  77.0490 0001696  96.3927 263.7258 15.08844600122481,6917.866,95.437,540.905,538.558,0.0
49411.0,STARLINK-3162,PAYLOAD,2024-01-30 08:01:33,15.08835247,0.0001711,53.2186,72.8922,109.5278,250.5899,-6.548e-05,-1.33e-05,0.0,0 STARLINK-3162,1 49411U 21104D   24030.33441951 -.00001330  00000-0 -65480-4 0  9992,2 49411  53.2186  72.8922 0001711 109.5278 250.5899 15.08835247123702,6917.895,95.438,540.944,538.576,0.0
49411.0,STARLINK-3162,PAYLOAD,2024-01-31 07:52:20,15.0884536,0.0001506,53.2176,68.4314,100.2428,259.8734,-7.9375e-05,-1.551e-05,0.0,0 STARLINK-3162,1 49411U 21104D   24031.32801627 -.00001551  00000-0 -79375-4 0  9995,2 49411  53.2176  68.4314 0001506 100.2428 259.8734 15.08845360123857,6917.864,95.437,540.771,538.687,0.0
49411.0,STARLINK-3162,PAYLOAD,2024-02-01 10:53:54,15.08834999,0.0001454,53.2171,63.3762,93.8723,266.2435,5.1748e-05,5.36e-06,0.0,0 STARLINK-3162,1 49411U 21104D   24032.45410191  .00000536  00000-0  51748-4 0  9996,2 49411  53.2171  63.3762 0001454  93.8723 266.2435 15.08834999124026,6917.896,95.438,540.767,538.755,0.0
49411.0,STARLINK-3162,PAYLOAD,2024-02-02 09:09:18,15.08841923,0.0001485,53.2172,59.2124,83.5979,276.5182,7.2295e-05,8.63e-06,0.0,0 STARLINK-3162,1 49411U 21104D   24033.38145913  .00000863  00000-0  72295-4 0  9999,2 49411  53.2172  59.2124 0001485  83.5979 276.5182 15.08841923123089,6917.875,95.437,540.767,538.712,0.0
49411.0,STARLINK-3162,PAYLOAD,2024-02-03 09:00:05,15.08842983,0.0001539,53.2176,54.7519,83.1433,276.9735,6.5176e-05,7.5e-06,0.0,0 STARLINK-3162,1 49411U 21104D   24034.37505942  .00000750  00000-0  65176-4 0  9996,2 49411  53.2176  54.7519 0001539  83.1433 276.9735 15.08842983123234,6917.871,95.437,540.801,538.672,0.0
49411.0,STARLINK-3162,PAYLOAD,2024-02-03 18:32:24,15.088418,0.0001683,53.218,52.9684,78.2057,281.9124,3.859e-05,3.26e-06,0.0,0 STARLINK-3162,1 49411U 21104D   24034.77250119  .00000326  00000-0  38590-4 0  9992,2 49411  53.2180  52.9684 0001683  78.2057 281.9124 15.08841800124370,6917.875,95.437,540.904,538.576,0.0
49411.0,STARLINK-3162,PAYLOAD,2024-02-04 07:15:29,15.08843866,0.0001691,53.2178,50.5893,79.0953,281.0229,3.5406e-05,2.76e-06,0.0,0 STARLINK-3162,1 49411U 21104D   24035.30241925  .00000276  00000-0  35406-4 0  9994,2 49411  53.2178  50.5893 0001691  79.0953 281.0229 15.08843866123376,6917.869,95.437,540.903,538.564,0.0
